CCSDS_OMM_VERS = 2.0
CREATION_DATE  = 
ORIGINATOR     = 

OBJECT_NAME    = STARLINK-35538
OBJECT_ID      = 2025-262V
CENTER_NAME    = EARTH
REF_FRAME      = TEME
TIME_SYSTEM    = UTC
MEAN_ELEMENT_THEORY = SGP/SGP4

EPOCH          = 2025-12-08T14:00:01.999872
MEAN_MOTION    = 15.50612542
ECCENTRICITY   = .00014722
INCLINATION    = 43.0004
RA_OF_ASC_NODE = 95.3480
ARG_OF_PERICENTER = 273.1779
MEAN_ANOMALY   = 283.0607

EPHEMERIS_TYPE = 0
CLASSIFICATION_TYPE = U
NORAD_CAT_ID   = 66475
ELEMENT_SET_NO = 999
REV_AT_EPOCH   = 497
BSTAR          = -.16251969E-2
MEAN_MOTION_DOT = -.94653E-3
MEAN_MOTION_DDOT = 0

CCSDS_OMM_VERS = 2.0
CREATION_DATE  = 
ORIGINATOR     = 

OBJECT_NAME    = STARLINK-35372
OBJECT_ID      = 2025-262W
CENTER_NAME    = EARTH
REF_FRAME      = TEME
TIME_SYSTEM    = UTC
MEAN_ELEMENT_THEORY = SGP/SGP4

EPOCH          = 2025-12-08T14:00:01.999872
MEAN_MOTION    = 15.50625843
ECCENTRICITY   = .00014288
INCLINATION    = 43.0003
RA_OF_ASC_NODE = 95.3430
ARG_OF_PERICENTER = 272.9093
MEAN_ANOMALY   = 285.2467

EPHEMERIS_TYPE = 0
CLASSIFICATION_TYPE = U
NORAD_CAT_ID   = 66476
ELEMENT_SET_NO = 999
REV_AT_EPOCH   = 486
BSTAR          = -.19902383E-2
MEAN_MOTION_DOT = -.115584E-2
MEAN_MOTION_DDOT = 0

CCSDS_OMM_VERS = 2.0
CREATION_DATE  = 
ORIGINATOR     = 

OBJECT_NAME    = STARLINK-35354
OBJECT_ID      = 2025-262X
CENTER_NAME    = EARTH
REF_FRAME      = TEME
TIME_SYSTEM    = UTC
MEAN_ELEMENT_THEORY = SGP/SGP4

EPOCH          = 2025-12-08T14:00:01.999872
MEAN_MOTION    = 15.50630292
ECCENTRICITY   = .00011177
INCLINATION    = 43.0003
RA_OF_ASC_NODE = 95.3328
ARG_OF_PERICENTER = 250.5250
MEAN_ANOMALY   = 311.3381

EPHEMERIS_TYPE = 0
CLASSIFICATION_TYPE = U
NORAD_CAT_ID   = 66477
ELEMENT_SET_NO = 999
REV_AT_EPOCH   = 497
BSTAR          = -.78579797E-3
MEAN_MOTION_DOT = -.46252E-3
MEAN_MOTION_DDOT = 0

CCSDS_OMM_VERS = 2.0
CREATION_DATE  = 
ORIGINATOR     = 

OBJECT_NAME    = STARLINK-35283
OBJECT_ID      = 2025-262Y
CENTER_NAME    = EARTH
REF_FRAME      = TEME
TIME_SYSTEM    = UTC
MEAN_ELEMENT_THEORY = SGP/SGP4

EPOCH          = 2025-12-08T14:00:01.999872
MEAN_MOTION    = 15.50632484
ECCENTRICITY   = .00013195
INCLINATION    = 43.0003
RA_OF_ASC_NODE = 95.3277
ARG_OF_PERICENTER = 270.1167
MEAN_ANOMALY   = 293.7825

EPHEMERIS_TYPE = 0
CLASSIFICATION_TYPE = U
NORAD_CAT_ID   = 66478
ELEMENT_SET_NO = 999
REV_AT_EPOCH   = 497
BSTAR          = -.21578606E-2
MEAN_MOTION_DOT = -.125167E-2
MEAN_MOTION_DDOT = 0

CCSDS_OMM_VERS = 2.0
CREATION_DATE  = 
ORIGINATOR     = 

OBJECT_NAME    = STARLINK-35581
OBJECT_ID      = 2025-262Z
CENTER_NAME    = EARTH
REF_FRAME      = TEME
TIME_SYSTEM    = UTC
MEAN_ELEMENT_THEORY = SGP/SGP4

EPOCH          = 2025-12-08T14:00:01.999872
MEAN_MOTION    = 15.50726790
ECCENTRICITY   = .00012007
INCLINATION    = 43.0004
RA_OF_ASC_NODE = 95.3372
ARG_OF_PERICENTER = 271.5486
MEAN_ANOMALY   = 288.5835

EPHEMERIS_TYPE = 0
CLASSIFICATION_TYPE = U
NORAD_CAT_ID   = 66479
ELEMENT_SET_NO = 999
REV_AT_EPOCH   = 497
BSTAR          = -.54098529E-2
MEAN_MOTION_DOT = -.307188E-2
MEAN_MOTION_DDOT = 0

CCSDS_OMM_VERS = 2.0
CREATION_DATE  = 
ORIGINATOR     = 

OBJECT_NAME    = STARLINK-35670
OBJECT_ID      = 2025-262AA
CENTER_NAME    = EARTH
REF_FRAME      = TEME
TIME_SYSTEM    = UTC
MEAN_ELEMENT_THEORY = SGP/SGP4

EPOCH          = 2025-12-08T14:00:01.999872
MEAN_MOTION    = 15.50571016
ECCENTRICITY   = .00013719
INCLINATION    = 43.0002
RA_OF_ASC_NODE = 95.3229
ARG_OF_PERICENTER = 272.7120
MEAN_ANOMALY   = 293.1312

EPHEMERIS_TYPE = 0
CLASSIFICATION_TYPE = U
NORAD_CAT_ID   = 66480
ELEMENT_SET_NO = 999
REV_AT_EPOCH   = 497
BSTAR          = -.63913755E-3
MEAN_MOTION_DOT = -.37646E-3
MEAN_MOTION_DDOT = 0

CCSDS_OMM_VERS = 2.0
CREATION_DATE  = 
ORIGINATOR     = 

OBJECT_NAME    = STARLINK-35698
OBJECT_ID      = 2025-262AB
CENTER_NAME    = EARTH
REF_FRAME      = TEME
TIME_SYSTEM    = UTC
MEAN_ELEMENT_THEORY = SGP/SGP4

EPOCH          = 2025-12-08T14:00:01.999872
MEAN_MOTION    = 15.50612502
ECCENTRICITY   = .0001478
INCLINATION    = 43.0004
RA_OF_ASC_NODE = 95.3170
ARG_OF_PERICENTER = 272.4831
MEAN_ANOMALY   = 295.2566

EPHEMERIS_TYPE = 0
CLASSIFICATION_TYPE = U
NORAD_CAT_ID   = 66481
ELEMENT_SET_NO = 999
REV_AT_EPOCH   = 497
BSTAR          = -.16122535E-2
MEAN_MOTION_DOT = -.93911E-3
MEAN_MOTION_DDOT = 0

CCSDS_OMM_VERS = 2.0
CREATION_DATE  = 
ORIGINATOR     = 

OBJECT_NAME    = STARLINK-35648
OBJECT_ID      = 2025-262AC
CENTER_NAME    = EARTH
REF_FRAME      = TEME
TIME_SYSTEM    = UTC
MEAN_ELEMENT_THEORY = SGP/SGP4

EPOCH          = 2025-12-08T14:00:01.999872
MEAN_MOTION    = 15.50612112
ECCENTRICITY   = .00013211
INCLINATION    = 43.0002
RA_OF_ASC_NODE = 95.3124
ARG_OF_PERICENTER = 270.8837
MEAN_ANOMALY   = 298.7702

EPHEMERIS_TYPE = 0
CLASSIFICATION_TYPE = U
NORAD_CAT_ID   = 66482
ELEMENT_SET_NO = 999
REV_AT_EPOCH   = 481
BSTAR          = -.15590477E-2
MEAN_MOTION_DOT = -.90855E-3
MEAN_MOTION_DDOT = 0

CCSDS_OMM_VERS = 2.0
CREATION_DATE  = 
ORIGINATOR     = 

OBJECT_NAME    = STARLINK-35654
OBJECT_ID      = 2025-262AD
CENTER_NAME    = EARTH
REF_FRAME      = TEME
TIME_SYSTEM    = UTC
MEAN_ELEMENT_THEORY = SGP/SGP4

EPOCH          = 2025-12-08T14:00:01.999872
MEAN_MOTION    = 15.50609538
ECCENTRICITY   = .00014107
INCLINATION    = 43.0003
RA_OF_ASC_NODE = 95.3068
ARG_OF_PERICENTER = 272.0373
MEAN_ANOMALY   = 299.5394

EPHEMERIS_TYPE = 0
CLASSIFICATION_TYPE = U
NORAD_CAT_ID   = 66483
ELEMENT_SET_NO = 999
REV_AT_EPOCH   = 497
BSTAR          = -.15363467E-2
MEAN_MOTION_DOT = -.89545E-3
MEAN_MOTION_DDOT = 0

CCSDS_OMM_VERS = 2.0
CREATION_DATE  = 
ORIGINATOR     = 

OBJECT_NAME    = STARLINK-35371
OBJECT_ID      = 2025-262AE
CENTER_NAME    = EARTH
REF_FRAME      = TEME
TIME_SYSTEM    = UTC
MEAN_ELEMENT_THEORY = SGP/SGP4

EPOCH          = 2025-12-08T14:00:01.999872
MEAN_MOTION    = 15.50584829
ECCENTRICITY   = .0001486
INCLINATION    = 43.0004
RA_OF_ASC_NODE = 95.3039
ARG_OF_PERICENTER = 278.8844
MEAN_ANOMALY   = 294.6257

EPHEMERIS_TYPE = 0
CLASSIFICATION_TYPE = U
NORAD_CAT_ID   = 66484
ELEMENT_SET_NO = 999
REV_AT_EPOCH   = 497
BSTAR          = -.11474258E-2
MEAN_MOTION_DOT = -.67095E-3
MEAN_MOTION_DDOT = 0

CCSDS_OMM_VERS = 2.0
CREATION_DATE  = 
ORIGINATOR     = 

OBJECT_NAME    = STARLINK-34774
OBJECT_ID      = 2025-263A
CENTER_NAME    = EARTH
REF_FRAME      = TEME
TIME_SYSTEM    = UTC
MEAN_ELEMENT_THEORY = SGP/SGP4

EPOCH          = 2025-12-08T14:00:01.999872
MEAN_MOTION    = 15.50797025
ECCENTRICITY   = .00014824
INCLINATION    = 42.9997
RA_OF_ASC_NODE = 149.4819
ARG_OF_PERICENTER = 279.9920
MEAN_ANOMALY   = 172.8721

EPHEMERIS_TYPE = 0
CLASSIFICATION_TYPE = U
NORAD_CAT_ID   = 66485
ELEMENT_SET_NO = 999
REV_AT_EPOCH   = 496
BSTAR          = -.10891314E-1
MEAN_MOTION_DOT = -.597403E-2
MEAN_MOTION_DDOT = 0

CCSDS_OMM_VERS = 2.0
CREATION_DATE  = 
ORIGINATOR     = 

OBJECT_NAME    = STARLINK-34844
OBJECT_ID      = 2025-263B
CENTER_NAME    = EARTH
REF_FRAME      = TEME
TIME_SYSTEM    = UTC
MEAN_ELEMENT_THEORY = SGP/SGP4

EPOCH          = 2025-12-08T14:00:01.999872
MEAN_MOTION    = 15.50600477
ECCENTRICITY   = .00015405
INCLINATION    = 43.0001
RA_OF_ASC_NODE = 149.4758
ARG_OF_PERICENTER = 279.5819
MEAN_ANOMALY   = 175.2436

EPHEMERIS_TYPE = 0
CLASSIFICATION_TYPE = U
NORAD_CAT_ID   = 66486
ELEMENT_SET_NO = 999
REV_AT_EPOCH   = 491
BSTAR          = -.13693911E-2
MEAN_MOTION_DOT = -.79924E-3
MEAN_MOTION_DDOT = 0

