STARLINK-35538          
1 66475U 25262V   25342.58335648 -.00094653  00000+0 -16252-2 0  9999
2 66475  43.0004  95.3480 0001472 273.1779 283.0607 15.50612542  4977
STARLINK-35372          
1 66476U 25262W   25342.58335648 -.00115584  00000+0 -19902-2 0  9992
2 66476  43.0003  95.3430 0001428 272.9093 285.2467 15.50625843  4863
STARLINK-35354          
1 66477U 25262X   25342.58335648 -.00046252  00000+0 -78580-3 0  9996
2 66477  43.0003  95.3328 0001117 250.5250 311.3381 15.50630292  4974
STARLINK-35283          
1 66478U 25262Y   25342.58335648 -.00125167  00000+0 -21579-2 0  9995
2 66478  43.0003  95.3277 0001319 270.1167 293.7825 15.50632484  4978
STARLINK-35581          
1 66479U 25262Z   25342.58335648 -.00307188  00000+0 -54099-2 0  9994
2 66479  43.0004  95.3372 0001200 271.5486 288.5835 15.50726790  4971
STARLINK-35670          
1 66480U 25262AA  25342.58335648 -.00037646  00000+0 -63914-3 0  9992
2 66480  43.0002  95.3229 0001371 272.7120 293.1312 15.50571016  4970
STARLINK-35698          
1 66481U 25262AB  25342.58335648 -.00093911  00000+0 -16123-2 0  9999
2 66481  43.0004  95.3170 0001478 272.4831 295.2566 15.50612502  4972
STARLINK-35648          
1 66482U 25262AC  25342.58335648 -.00090855  00000+0 -15590-2 0  9991
2 66482  43.0002  95.3124 0001321 270.8837 298.7702 15.50612112  4815
STARLINK-35654          
1 66483U 25262AD  25342.58335648 -.00089545  00000+0 -15363-2 0  9994
2 66483  43.0003  95.3068 0001410 272.0373 299.5394 15.50609538  4973
STARLINK-35371          
1 66484U 25262AE  25342.58335648 -.00067095  00000+0 -11474-2 0  9990
2 66484  43.0004  95.3039 0001486 278.8844 294.6257 15.50584829  4972
STARLINK-34774          
1 66485U 25263A   25342.58335648 -.00597403  00000+0 -10891-1 0  9994
2 66485  42.9997 149.4819 0001482 279.9920 172.8721 15.50797025  4968
STARLINK-34844          
1 66486U 25263B   25342.58335648 -.00079924  00000+0 -13694-2 0  9993
2 66486  43.0001 149.4758 0001540 279.5819 175.2436 15.50600477  4916
